COMMENT,ORIGINATOR,NORAD_CAT_ID,OBJECT_NAME,OBJECT_TYPE,CLASSIFICATION_TYPE,INTLDES,EPOCH,EPOCH_MICROSECONDS,MEAN_MOTION,ECCENTRICITY,INCLINATION,RA_OF_ASC_NODE,ARG_OF_PERICENTER,MEAN_ANOMALY,EPHEMERIS_TYPE,ELEMENT_SET_NO,REV_AT_EPOCH,BSTAR,MEAN_MOTION_DOT,MEAN_MOTION_DDOT,FILE,TLE_LINE0,TLE_LINE1,TLE_LINE2,OBJECT_ID,OBJECT_NUMBER,SEMIMAJOR_AXIS,PERIOD,APOGEE,PERIGEE,DECAYED
"GENERATED VIA SPACETRACK.ORG API","18 SPCS","48899","SPACEBEE-110","PAYLOAD","U","21059W","2022-03-22 20:52:25","575744","15.14321234","0.0010165","97.5433","212.3104","48.0431","312.1665","0","999","4083","0.00033155","0.00006015","0","3370190","0 SPACEBEE-110","1 48899U 21059W   22081.86974046  .00006015  00000-0  33155-3 0  9994","2 48899  97.5433 212.3104 0010165  48.0431 312.1665 15.14321234 40832","2021-059W","48899","6901.177","95.092","530.057","516.027","0"
"GENERATED VIA SPACETRACK.ORG API","18 SPCS","48899","SPACEBEE-110","PAYLOAD","U","21059W","2022-03-23 14:19:05","858112","15.14331937","0.0010069","97.5431","213.0309","45.4279","314.7773","0","999","4094","0.00038385","0.00006977","0","3371208","0 SPACEBEE-110","1 48899U 21059W   22082.59659558  .00006977  00000-0  38385-3 0  9990","2 48899  97.5431 213.0309 0010069  45.4279 314.7773 15.14331937 40940","2021-059W","48899","6901.144","95.091","529.958","516.061","0"
"GENERATED VIA SPACETRACK.ORG API","18 SPCS","48899","SPACEBEE-110","PAYLOAD","U","21059W","2022-03-23 20:39:42","216192","15.14336412","0.0010038","97.543","213.2929","44.4932","315.7104","0","999","4098","0.00040635","0.00007391","0","3371570","0 SPACEBEE-110","1 48899U 21059W   22082.86090528  .00007391  00000-0  40635-3 0  9998","2 48899  97.5430 213.2929 0010038  44.4932 315.7104 15.14336412 40986","2021-059W","48899","6901.131","95.091","529.923","516.069","0"
"GENERATED VIA SPACETRACK.ORG API","18 SPCS","48899","SPACEBEE-110","PAYLOAD","U","21059W","2022-03-23 20:39:42","216192","15.14336412","0.0010038","97.543","213.2929","44.4932","315.7104","0","999","4098","0.00040635","0.00007391","0","3371636","0 SPACEBEE-110","1 48899U 21059W   22082.86090528  .00007391  00000-0  40635-3 0  9998","2 48899  97.5430 213.2929 0010038  44.4932 315.7104 15.14336412 40986","2021-059W","48899","6901.131","95.091","529.923","516.069","0"
"GENERATED VIA SPACETRACK.ORG API","18 SPCS","48899","SPACEBEE-110","PAYLOAD","U","21059W","2022-03-24 07:45:45","701568","15.14343314","0.000999","97.543","213.7514","42.8037","317.3971","0","999","4105","0.00042332","0.00007704","0","3372185","0 SPACEBEE-110","1 48899U 21059W   22083.32344562  .00007704  00000-0  42332-3 0  9994","2 48899  97.5430 213.7514 0009990  42.8037 317.3971 15.14343314 41052","2021-059W","48899","6901.110","95.091","529.869","516.081","0"
"GENERATED VIA SPACETRACK.ORG API","18 SPCS","48899","SPACEBEE-110","PAYLOAD","U","21059W","2022-03-24 22:02:07","15200","15.14354608","0.0009935","97.5429","214.3409","40.7515","319.4458","0","999","4114","0.00049445","0.00009014","0","3372873","0 SPACEBEE-110","1 48899U 21059W   22083.91813675  .00009014  00000-0  49445-3 0  9993","2 48899  97.5429 214.3409 0009935  40.7515 319.4458 15.14354608 41148","2021-059W","48899","6901.076","95.090","529.797","516.084","0"
"GENERATED VIA SPACETRACK.ORG API","18 SPCS","48899","SPACEBEE-110","PAYLOAD","U","21059W","2022-03-24 22:02:07","15200","15.14354608","0.0009935","97.5429","214.3409","40.7515","319.4458","0","999","4114","0.00049445","0.00009014","0","3373054","0 SPACEBEE-110","1 48899U 21059W   22083.91813675  .00009014  00000-0  49445-3 0  9993","2 48899  97.5429 214.3409 0009935  40.7515 319.4458 15.14354608 41148","2021-059W","48899","6901.076","95.090","529.797","516.084","0"
"GENERATED VIA SPACETRACK.ORG API","18 SPCS","48899","SPACEBEE-110","PAYLOAD","U","21059W","2022-03-25 07:33:01","78848","15.14359877","0.0009933","97.5429","214.7339","39.4139","320.7814","0","999","4120","0.00046668","0.00008505","0","3373822","0 SPACEBEE-110","1 48899U 21059W   22084.31459582  .00008505  00000-0  46668-3 0  9999","2 48899  97.5429 214.7339 0009933  39.4139 320.7814 15.14359877 41200","2021-059W","48899","6901.060","95.090","529.779","516.070","0"
"GENERATED VIA SPACETRACK.ORG API","18 SPCS","48899","SPACEBEE-110","PAYLOAD","U","21059W","2022-03-25 20:14:12","893856","15.14369272","0.0009909","97.543","215.258","37.6049","322.5874","0","999","4128","0.00048524","0.00008849","0","3374844","0 SPACEBEE-110","1 48899U 21059W   22084.84320479  .00008849  00000-0  48524-3 0  9993","2 48899  97.5430 215.2580 0009909  37.6049 322.5874 15.14369272 41283","2021-059W","48899","6901.031","95.089","529.734","516.058","0"
"GENERATED VIA SPACETRACK.ORG API","18 SPCS","48899","SPACEBEE-110","PAYLOAD","U","21059W","2022-03-26 04:09:57","629088","15.14374415","0.00099","97.5431","215.5856","36.5281","323.6624","0","999","4133","0.00047244","0.00008614","0","3374738","0 SPACEBEE-110","1 48899U 21059W   22085.17358367  .00008614  00000-0  47244-3 0  9995","2 48899  97.5431 215.5856 0009900  36.5281 323.6624 15.14374415 41336","2021-059W","48899","6901.015","95.089","529.712","516.048","0"
"GENERATED VIA SPACETRACK.ORG API","18 SPCS","48899","SPACEBEE-110","PAYLOAD","U","21059W","2022-03-26 07:20:15","504864","15.14376593","0.0009895","97.5432","215.7165","36.1096","324.0802","0","999","4135","0.00046794","0.00008532","0","3375254","0 SPACEBEE-110","1 48899U 21059W   22085.30573501  .00008532  00000-0  46794-3 0  9997","2 48899  97.5432 215.7165 0009895  36.1096 324.0802 15.14376593 41359","2021-059W","48899","6901.009","95.089","529.702","516.045","0"
"GENERATED VIA SPACETRACK.ORG API","18 SPCS","48899","SPACEBEE-110","PAYLOAD","U","21059W","2022-03-26 21:36:35","709120","15.14386764","0.0009873","97.5434","216.3061","34.3002","325.8866","0","999","4144","0.00046893","0.00008553","0","3375650","0 SPACEBEE-110","1 48899U 21059W   22085.90041330  .00008553  00000-0  46893-3 0  9996","2 48899  97.5434 216.3061 0009873  34.3002 325.8866 15.14386764 41446","2021-059W","48899","6900.978","95.088","529.656","516.030","0"
"GENERATED VIA SPACETRACK.ORG API","18 SPCS","48899","SPACEBEE-110","PAYLOAD","U","21059W","2022-03-27 08:42:37","780992","15.14396208","0.0009875","97.5434","216.7648","32.9154","327.269","0","999","4151","0.00049076","0.00008957","0","3376586","0 SPACEBEE-110","1 48899U 21059W   22086.36293728  .00008957  00000-0  49076-3 0  9991","2 48899  97.5434 216.7648 0009875  32.9154 327.2690 15.14396208 41518","2021-059W","48899","6900.949","95.087","529.629","516.000","0"
"GENERATED VIA SPACETRACK.ORG API","18 SPCS","48899","SPACEBEE-110","PAYLOAD","U","21059W","2022-03-27 08:42:37","780992","15.14396208","0.0009875","97.5434","216.7648","32.9154","327.269","0","999","4151","0.00049076","0.00008957","0","3376641","0 SPACEBEE-110","1 48899U 21059W   22086.36293728  .00008957  00000-0  49076-3 0  9991","2 48899  97.5434 216.7648 0009875  32.9154 327.2690 15.14396208 41518","2021-059W","48899","6900.949","95.087","529.629","516.000","0"
"GENERATED VIA SPACETRACK.ORG API","18 SPCS","48899","SPACEBEE-110","PAYLOAD","U","21059W","2022-03-27 21:23:48","456384","15.14407717","0.0009815","97.5437","217.2887","31.4465","328.7351","0","999","4159","0.00054866","0.00010026","0","3377053","0 SPACEBEE-110","1 48899U 21059W   22086.89153306  .00010026  00000-0  54866-3 0  9999","2 48899  97.5437 217.2887 0009815  31.4465 328.7351 15.14407717 41591","2021-059W","48899","6900.914","95.087","529.553","516.006","0"
"GENERATED VIA SPACETRACK.ORG API","18 SPCS","48899","SPACEBEE-110","PAYLOAD","U","21059W","2022-03-28 08:29:49","969248","15.14419227","0.00098","97.5438","217.7474","30.0375","330.1417","0","999","4166","0.00060632","0.00011092","0","3377801","0 SPACEBEE-110","1 48899U 21059W   22087.35405057  .00011092  00000-0  60632-3 0  9996","2 48899  97.5438 217.7474 0009800  30.0375 330.1417 15.14419227 41665","2021-059W","48899","6900.879","95.086","529.507","515.981","0"
"GENERATED VIA SPACETRACK.ORG API","18 SPCS","48899","SPACEBEE-110","PAYLOAD","U","21059W","2022-03-28 21:10:59","976768","15.1442883","0.0009736","97.544","218.2715","28.3123","331.8636","0","999","4174","0.00054579","0.00009979","0","3378229","0 SPACEBEE-110","1 48899U 21059W   22087.88263862  .00009979  00000-0  54579-3 0  9994","2 48899  97.5440 218.2715 0009736  28.3123 331.8636 15.14428830 41741","2021-059W","48899","6900.850","95.085","529.434","515.996","0"
"GENERATED VIA SPACETRACK.ORG API","18 SPCS","48899","SPACEBEE-110","PAYLOAD","U","21059W","2022-03-28 21:10:59","976768","15.1442883","0.0009736","97.544","218.2715","28.3123","331.8636","0","999","4174","0.00054579","0.00009979","0","3378342","0 SPACEBEE-110","1 48899U 21059W   22087.88263862  .00009979  00000-0  54579-3 0  9994","2 48899  97.5440 218.2715 0009736  28.3123 331.8636 15.14428830 41741","2021-059W","48899","6900.850","95.085","529.434","515.996","0"
"GENERATED VIA SPACETRACK.ORG API","18 SPCS","48899","SPACEBEE-110","PAYLOAD","U","21059W","2022-03-29 14:37:35","603040","15.14445603","0.0009671","97.544","218.9922","25.8841","334.2873","0","999","4185","0.00056138","0.00010271","0","3379323","0 SPACEBEE-110","1 48899U 21059W   22088.60943985  .00010271  00000-0  56138-3 0  9996","2 48899  97.5440 218.9922 0009671  25.8841 334.2873 15.14445603 41854","2021-059W","48899","6900.799","95.084","529.338","515.990","0"
"GENERATED VIA SPACETRACK.ORG API","18 SPCS","48899","SPACEBEE-110","PAYLOAD","U","21059W","2022-03-29 20:58:10","218432","15.14452492","0.0009646","97.544","219.2543","24.941","335.2286","0","999","4189","0.00059885","0.00010964","0","3379484","0 SPACEBEE-110","1 48899U 21059W   22088.87372938  .00010964  00000-0  59885-3 0  9990","2 48899  97.5440 219.2543 0009646  24.9410 335.2286 15.14452492 41898","2021-059W","48899","6900.778","95.084","529.300","515.987","0"
